{
  "norad_id": 65498,
  "name": "STARLINK-35203",
  "history": [
    {
      "epoch": "2026-03-28T17:56:23.982720Z",
      "apogee_km": 476.0515758728752,
      "perigee_km": 474.3108330489422,
      "latitude_deg": -4.0539988363202166e-05,
      "longitude_deg": 87.5167365048061,
      "height_km": 475.88459532024416,
      "semi_major_axis_km": 6853.318204460908,
      "eccentricity": 0.000127,
      "inclination_deg": 53.1586,
      "raan_deg": 182.7802,
      "arg_perigee_deg": 77.081,
      "mean_anomaly_deg": 283.0332,
      "mean_motion_rev_day": 15.30211342
    }
  ]
}